{
    "links": {
        "self": "http://www.neowsapp.com/rest/v1/neo/3264190?api_key=iIulBulltgU6a56xZRHN4H3l9WmuAYTsLGpBGhQ2"
    },
    "id": "3264190",
    "neo_reference_id": "3264190",
    "name": "(2004 YE)",
    "designation": "2004 YE",
    "nasa_jpl_url": "http://ssd.jpl.nasa.gov/sbdb.cgi?sstr=3264190",
    "absolute_magnitude_h": 24.9,
    "estimated_diameter": {
        "kilometers": {
            "estimated_diameter_min": 0.0278326768,
            "estimated_diameter_max": 0.0622357573
        },
        "meters": {
            "estimated_diameter_min": 27.8326768072,
            "estimated_diameter_max": 62.2357573367
        },
        "miles": {
            "estimated_diameter_min": 0.0172944182,
            "estimated_diameter_max": 0.0386714948
        },
        "feet": {
            "estimated_diameter_min": 91.3145593761,
            "estimated_diameter_max": 204.1855621004
        }
    },
    "is_potentially_hazardous_asteroid": false,
    "close_approach_data": [
        {
            "close_approach_date": "2004-12-13",
            "close_approach_date_full": "2004-Dec-13 07:08",
            "epoch_date_close_approach": 1102921680000,
            "relative_velocity": {
                "kilometers_per_second": "6.4421634286",
                "kilometers_per_hour": "23191.7883430268",
                "miles_per_hour": "14410.4753734768"
            },
            "miss_distance": {
                "astronomical": "0.057351409",
                "lunar": "22.309698101",
                "kilometers": "8579648.62789883",
                "miles": "5331146.448830654"
            },
            "orbiting_body": "Earth"
        }
    ],
    "orbital_data": {
        "orbit_id": "7",
        "orbit_determination_date": "2017-04-06 09:11:40",
        "first_observation_date": "2004-12-15",
        "last_observation_date": "2005-01-03",
        "data_arc_in_days": 19,
        "observations_used": 21,
        "orbit_uncertainty": "8",
        "minimum_orbit_intersection": ".0511387",
        "jupiter_tisserand_invariant": "3.388",
        "epoch_osculation": "2453358.5",
        "eccentricity": ".5461250170512291",
        "semi_major_axis": "2.283609064721986",
        "inclination": "1.483373524432478",
        "ascending_node_longitude": "69.45566981029778",
        "orbital_period": "1260.465793386052",
        "perihelion_distance": "1.03647302531235",
        "perihelion_argument": "5.409683469448364",
        "aphelion_distance": "3.530745104131622",
        "perihelion_time": "2453347.964973537394",
        "mean_anomaly": "3.008895240504611",
        "mean_motion": ".2856087026629371",
        "equinox": "J2000",
        "orbit_class": {
            "orbit_class_type": "AMO",
            "orbit_class_description": "Near-Earth asteroid orbits similar to that of 1221 Amor",
            "orbit_class_range": "1.017 AU < q (perihelion) < 1.3 AU"
        }
    },
    "is_sentry_object": false
}